{
  "links" : {
    "next" : "https://api.nasa.gov/neo/rest/v1/feed?start_date=2015-09-23&end_date=2015-09-23&detailed=true&api_key=t0TVs3DtDT2H8Oy2Zy8m2eVrNsAVKAexjcZXUckd",
    "prev" : "https://api.nasa.gov/neo/rest/v1/feed?start_date=2015-09-21&end_date=2015-09-21&detailed=true&api_key=t0TVs3DtDT2H8Oy2Zy8m2eVrNsAVKAexjcZXUckd",
    "self" : "https://api.nasa.gov/neo/rest/v1/feed?start_date=2015-09-22&end_date=2015-09-22&detailed=true&api_key=t0TVs3DtDT2H8Oy2Zy8m2eVrNsAVKAexjcZXUckd"
  },
  "element_count" : 12,
  "near_earth_objects" : {
    "2015-09-22" : [ {
      "links" : {
        "self" : "https://api.nasa.gov/neo/rest/v1/neo/3745511?api_key=t0TVs3DtDT2H8Oy2Zy8m2eVrNsAVKAexjcZXUckd"
      },
      "neo_reference_id" : "3745511",
      "name" : "(2016 EO28)",
      "nasa_jpl_url" : "http://ssd.jpl.nasa.gov/sbdb.cgi?sstr=3745511",
      "absolute_magnitude_h" : 29.2,
      "estimated_diameter" : {
        "kilometers" : {
          "estimated_diameter_min" : 0.0038419789,
          "estimated_diameter_max" : 0.008590926
        },
        "meters" : {
          "estimated_diameter_min" : 3.8419789106,
          "estimated_diameter_max" : 8.5909260123
        },
        "miles" : {
          "estimated_diameter_min" : 0.0023872943,
          "estimated_diameter_max" : 0.0053381523
        },
        "feet" : {
          "estimated_diameter_min" : 12.6049180892,
          "estimated_diameter_max" : 28.1854536983
        }
      },
      "is_potentially_hazardous_asteroid" : false,
      "close_approach_data" : [ {
        "close_approach_date" : "2015-09-22",
        "epoch_date_close_approach" : 1442905200000,
        "relative_velocity" : {
          "kilometers_per_second" : "5.3914831198",
          "kilometers_per_hour" : "19409.3392313946",
          "miles_per_hour" : "12060.2085907518"
        },
        "miss_distance" : {
          "astronomical" : "0.3517565089",
          "lunar" : "136.8332824707",
          "kilometers" : "52622024",
          "miles" : "32697810"
        },
        "orbiting_body" : "Earth"
      } ],
      "orbital_data" : {
        "orbit_id" : "12",
        "orbit_determination_date" : "2017-04-06 08:27:45",
        "orbit_uncertainty" : "7",
        "minimum_orbit_intersection" : ".000565374",
        "jupiter_tisserand_invariant" : "4.985",
        "epoch_osculation" : "2458000.5",
        "eccentricity" : ".3060148356233818",
        "semi_major_axis" : "1.288471734525281",
        "inclination" : "2.431971033268129",
        "ascending_node_longitude" : "159.4887907442164",
        "orbital_period" : "534.208471184514",
        "perihelion_distance" : ".8941802684791534",
        "perihelion_argument" : "305.4480797617834",
        "aphelion_distance" : "1.682763200571409",
        "perihelion_time" : "2457937.775340752155",
        "mean_anomaly" : "42.26978520043871",
        "mean_motion" : ".6738942181163149",
        "equinox" : "J2000"
      }
    }, {
      "links" : {
        "self" : "https://api.nasa.gov/neo/rest/v1/neo/3715702?api_key=t0TVs3DtDT2H8Oy2Zy8m2eVrNsAVKAexjcZXUckd"
      },
      "neo_reference_id" : "3715702",
      "name" : "(2015 GY12)",
      "nasa_jpl_url" : "http://ssd.jpl.nasa.gov/sbdb.cgi?sstr=3715702",
      "absolute_magnitude_h" : 25.6,
      "estimated_diameter" : {
        "kilometers" : {
          "estimated_diameter_min" : 0.0201629919,
          "estimated_diameter_max" : 0.0450858206
        },
        "meters" : {
          "estimated_diameter_min" : 20.1629919443,
          "estimated_diameter_max" : 45.0858206172
        },
        "miles" : {
          "estimated_diameter_min" : 0.0125286985,
          "estimated_diameter_max" : 0.0280150214
        },
        "feet" : {
          "estimated_diameter_min" : 66.1515504905,
          "estimated_diameter_max" : 147.9193637137
        }
      },
      "is_potentially_hazardous_asteroid" : false,
      "close_approach_data" : [ {
        "close_approach_date" : "2015-09-22",
        "epoch_date_close_approach" : 1442905200000,
        "relative_velocity" : {
          "kilometers_per_second" : "10.5420601788",
          "kilometers_per_hour" : "37951.4166435248",
          "miles_per_hour" : "23581.5344138613"
        },
        "miss_distance" : {
          "astronomical" : "0.3903275905",
          "lunar" : "151.8374328613",
          "kilometers" : "58392180",
          "miles" : "36283216"
        },
        "orbiting_body" : "Earth"
      } ],
      "orbital_data" : {
        "orbit_id" : "11",
        "orbit_determination_date" : "2017-04-06 08:34:28",
        "orbit_uncertainty" : "8",
        "minimum_orbit_intersection" : ".0277374",
        "jupiter_tisserand_invariant" : "4.750",
        "epoch_osculation" : "2457126.5",
        "eccentricity" : ".3121612145228426",
        "semi_major_axis" : "1.35737190124009",
        "inclination" : "19.22101988811279",
        "ascending_node_longitude" : "25.32563573295796",
        "orbital_period" : "577.6259674182854",
        "perihelion_distance" : ".9336530399898032",
        "perihelion_argument" : "234.5051359383499",
        "aphelion_distance" : "1.781090762490376",
        "perihelion_time" : "2457176.409730704062",
        "mean_anomaly" : "328.8942255595458",
        "mean_motion" : ".6232406787545054",
        "equinox" : "J2000"
      }
    }, {
      "links" : {
        "self" : "https://api.nasa.gov/neo/rest/v1/neo/3740043?api_key=t0TVs3DtDT2H8Oy2Zy8m2eVrNsAVKAexjcZXUckd"
      },
      "neo_reference_id" : "3740043",
      "name" : "(2016 AG165)",
      "nasa_jpl_url" : "http://ssd.jpl.nasa.gov/sbdb.cgi?sstr=3740043",
      "absolute_magnitude_h" : 20.9,
      "estimated_diameter" : {
        "kilometers" : {
          "estimated_diameter_min" : 0.1756123185,
          "estimated_diameter_max" : 0.3926810818
        },
        "meters" : {
          "estimated_diameter_min" : 175.6123184804,
          "estimated_diameter_max" : 392.6810818086
        },
        "miles" : {
          "estimated_diameter_min" : 0.1091204019,
          "estimated_diameter_max" : 0.2440006365
        },
        "feet" : {
          "estimated_diameter_min" : 576.1559189633,
          "estimated_diameter_max" : 1288.3238004408
        }
      },
      "is_potentially_hazardous_asteroid" : false,
      "close_approach_data" : [ {
        "close_approach_date" : "2015-09-22",
        "epoch_date_close_approach" : 1442905200000,
        "relative_velocity" : {
          "kilometers_per_second" : "12.4557849878",
          "kilometers_per_hour" : "44840.8259561113",
          "miles_per_hour" : "27862.3454392293"
        },
        "miss_distance" : {
          "astronomical" : "0.3607872776",
          "lunar" : "140.3462524414",
          "kilometers" : "53973008",
          "miles" : "33537272"
        },
        "orbiting_body" : "Earth"
      } ],
      "orbital_data" : {
        "orbit_id" : "25",
        "orbit_determination_date" : "2017-08-27 06:17:27",
        "orbit_uncertainty" : "0",
        "minimum_orbit_intersection" : ".245046",
        "jupiter_tisserand_invariant" : "4.180",
        "epoch_osculation" : "2458000.5",
        "eccentricity" : ".3518651064742382",
        "semi_major_axis" : "1.6401349050132",
        "inclination" : "16.52272109178742",
        "ascending_node_longitude" : "311.2287051547129",
        "orbital_period" : "767.2162340336059",
        "perihelion_distance" : "1.063028662028616",
        "perihelion_argument" : "99.10016785812292",
        "aphelion_distance" : "2.217241147997785",
        "perihelion_time" : "2458093.887767481184",
        "mean_anomaly" : "316.1797641892003",
        "mean_motion" : ".4692288614740536",
        "equinox" : "J2000"
      }
    } ]
  }
}